CCSDS_OMM_VERS = 2.0
CREATION_DATE  = 
ORIGINATOR     = 

OBJECT_NAME    = SL-3 R/B
OBJECT_ID      = 1988-032B
CENTER_NAME    = EARTH
REF_FRAME      = TEME
TIME_SYSTEM    = UTC
MEAN_ELEMENT_THEORY = SGP/SGP4

EPOCH          = 2026-03-21T04:29:53.977056
MEAN_MOTION    = 15.20029794
ECCENTRICITY   = .00254815
INCLINATION    = 97.5209
RA_OF_ASC_NODE = 63.3995
ARG_OF_PERICENTER = 189.7730
MEAN_ANOMALY   = 170.3013

EPHEMERIS_TYPE = 0
CLASSIFICATION_TYPE = U
NORAD_CAT_ID   = 19046
ELEMENT_SET_NO = 999
REV_AT_EPOCH   = 5385
BSTAR          = .23374382E-3
MEAN_MOTION_DOT = .501E-4
MEAN_MOTION_DDOT = 0

CCSDS_OMM_VERS = 2.0
CREATION_DATE  = 
ORIGINATOR     = 

OBJECT_NAME    = SL-16 R/B
OBJECT_ID      = 1988-039B
CENTER_NAME    = EARTH
REF_FRAME      = TEME
TIME_SYSTEM    = UTC
MEAN_ELEMENT_THEORY = SGP/SGP4

EPOCH          = 2026-03-21T04:24:45.548928
MEAN_MOTION    = 14.19617742
ECCENTRICITY   = .00233256
INCLINATION    = 71.0153
RA_OF_ASC_NODE = 44.2413
ARG_OF_PERICENTER = 317.7273
MEAN_ANOMALY   = 42.2053

EPHEMERIS_TYPE = 0
CLASSIFICATION_TYPE = U
NORAD_CAT_ID   = 19120
ELEMENT_SET_NO = 999
REV_AT_EPOCH   = 96001
BSTAR          = -.39232725E-4
MEAN_MOTION_DOT = -.131E-5
MEAN_MOTION_DDOT = 0

CCSDS_OMM_VERS = 2.0
CREATION_DATE  = 
ORIGINATOR     = 

OBJECT_NAME    = COSMOS 1953
OBJECT_ID      = 1988-050A
CENTER_NAME    = EARTH
REF_FRAME      = TEME
TIME_SYSTEM    = UTC
MEAN_ELEMENT_THEORY = SGP/SGP4

EPOCH          = 2026-03-21T05:05:28.433760
MEAN_MOTION    = 15.28699907
ECCENTRICITY   = .00126533
INCLINATION    = 82.5085
RA_OF_ASC_NODE = 146.6581
ARG_OF_PERICENTER = 86.5727
MEAN_ANOMALY   = 273.6959

EPHEMERIS_TYPE = 0
CLASSIFICATION_TYPE = U
NORAD_CAT_ID   = 19210
ELEMENT_SET_NO = 999
REV_AT_EPOCH   = 3954
BSTAR          = .2589762E-3
MEAN_MOTION_DOT = .7274E-4
MEAN_MOTION_DDOT = 0

CCSDS_OMM_VERS = 2.0
CREATION_DATE  = 
ORIGINATOR     = 

OBJECT_NAME    = SL-8 R/B
OBJECT_ID      = 1988-053B
CENTER_NAME    = EARTH
REF_FRAME      = TEME
TIME_SYSTEM    = UTC
MEAN_ELEMENT_THEORY = SGP/SGP4

EPOCH          = 2026-03-21T04:47:52.300032
MEAN_MOTION    = 14.38923254
ECCENTRICITY   = .00215427
INCLINATION    = 74.0450
RA_OF_ASC_NODE = 91.2476
ARG_OF_PERICENTER = 269.0354
MEAN_ANOMALY   = 164.1065

EPHEMERIS_TYPE = 0
CLASSIFICATION_TYPE = U
NORAD_CAT_ID   = 19257
ELEMENT_SET_NO = 999
REV_AT_EPOCH   = 97825
BSTAR          = .99524806E-4
MEAN_MOTION_DOT = .281E-5
MEAN_MOTION_DDOT = 0

CCSDS_OMM_VERS = 2.0
CREATION_DATE  = 
ORIGINATOR     = 

OBJECT_NAME    = COSMOS 1975
OBJECT_ID      = 1988-093A
CENTER_NAME    = EARTH
REF_FRAME      = TEME
TIME_SYSTEM    = UTC
MEAN_ELEMENT_THEORY = SGP/SGP4

EPOCH          = 2026-03-21T02:50:36.209760
MEAN_MOTION    = 15.28211514
ECCENTRICITY   = .00130797
INCLINATION    = 82.5160
RA_OF_ASC_NODE = 106.2087
ARG_OF_PERICENTER = 126.0748
MEAN_ANOMALY   = 234.1705

EPHEMERIS_TYPE = 0
CLASSIFICATION_TYPE = U
NORAD_CAT_ID   = 19573
ELEMENT_SET_NO = 999
REV_AT_EPOCH   = 2115
BSTAR          = .21200496E-3
MEAN_MOTION_DOT = .5874E-4
MEAN_MOTION_DDOT = 0

CCSDS_OMM_VERS = 2.0
CREATION_DATE  = 
ORIGINATOR     = 

OBJECT_NAME    = SL-14 R/B
OBJECT_ID      = 1988-093B
CENTER_NAME    = EARTH
REF_FRAME      = TEME
TIME_SYSTEM    = UTC
MEAN_ELEMENT_THEORY = SGP/SGP4

EPOCH          = 2026-03-20T23:29:27.603744
MEAN_MOTION    = 14.85669422
ECCENTRICITY   = .0020821
INCLINATION    = 82.5328
RA_OF_ASC_NODE = 31.4470
ARG_OF_PERICENTER = 5.3347
MEAN_ANOMALY   = 63.6004

EPHEMERIS_TYPE = 0
CLASSIFICATION_TYPE = U
NORAD_CAT_ID   = 19574
ELEMENT_SET_NO = 999
REV_AT_EPOCH   = 269
BSTAR          = .5306079E-4
MEAN_MOTION_DOT = .486E-5
MEAN_MOTION_DDOT = 0

CCSDS_OMM_VERS = 2.0
CREATION_DATE  = 
ORIGINATOR     = 

OBJECT_NAME    = SL-16 R/B
OBJECT_ID      = 1988-102B
CENTER_NAME    = EARTH
REF_FRAME      = TEME
TIME_SYSTEM    = UTC
MEAN_ELEMENT_THEORY = SGP/SGP4

EPOCH          = 2026-03-21T04:57:20.829312
MEAN_MOTION    = 14.16155751
ECCENTRICITY   = .0014765
INCLINATION    = 70.9987
RA_OF_ASC_NODE = 127.2656
ARG_OF_PERICENTER = 343.7614
MEAN_ANOMALY   = 16.3034

EPHEMERIS_TYPE = 0
CLASSIFICATION_TYPE = U
NORAD_CAT_ID   = 19650
ELEMENT_SET_NO = 999
REV_AT_EPOCH   = 92852
BSTAR          = -.58542753E-4
MEAN_MOTION_DOT = -.164E-5
MEAN_MOTION_DDOT = 0

CCSDS_OMM_VERS = 2.0
CREATION_DATE  = 
ORIGINATOR     = 

OBJECT_NAME    = INTERCOSMOS 24
OBJECT_ID      = 1989-080A
CENTER_NAME    = EARTH
REF_FRAME      = TEME
TIME_SYSTEM    = UTC
MEAN_ELEMENT_THEORY = SGP/SGP4

EPOCH          = 2026-03-21T01:57:39.116736
MEAN_MOTION    = 12.59573047
ECCENTRICITY   = .11867057
INCLINATION    = 82.6016
RA_OF_ASC_NODE = 96.9838
ARG_OF_PERICENTER = 266.3512
MEAN_ANOMALY   = 80.1436

EPHEMERIS_TYPE = 0
CLASSIFICATION_TYPE = U
NORAD_CAT_ID   = 20261
ELEMENT_SET_NO = 999
REV_AT_EPOCH   = 66823
BSTAR          = .14147951E-3
MEAN_MOTION_DOT = .476E-5
MEAN_MOTION_DDOT = 0

CCSDS_OMM_VERS = 2.0
CREATION_DATE  = 
ORIGINATOR     = 

OBJECT_NAME    = SL-14 R/B
OBJECT_ID      = 1989-080C
CENTER_NAME    = EARTH
REF_FRAME      = TEME
TIME_SYSTEM    = UTC
MEAN_ELEMENT_THEORY = SGP/SGP4

EPOCH          = 2026-03-21T03:48:26.098560
MEAN_MOTION    = 12.50505429
ECCENTRICITY   = .12308261
INCLINATION    = 82.5967
RA_OF_ASC_NODE = 165.8267
ARG_OF_PERICENTER = 158.5457
MEAN_ANOMALY   = 207.2223

EPHEMERIS_TYPE = 0
CLASSIFICATION_TYPE = U
NORAD_CAT_ID   = 20262
ELEMENT_SET_NO = 999
REV_AT_EPOCH   = 66158
BSTAR          = .11010744E-3
MEAN_MOTION_DOT = .39E-5
MEAN_MOTION_DDOT = 0

CCSDS_OMM_VERS = 2.0
CREATION_DATE  = 
ORIGINATOR     = 

OBJECT_NAME    = DELTA 1 R/B
OBJECT_ID      = 1989-089B
CENTER_NAME    = EARTH
REF_FRAME      = TEME
TIME_SYSTEM    = UTC
MEAN_ELEMENT_THEORY = SGP/SGP4

EPOCH          = 2026-03-21T06:39:54.995040
MEAN_MOTION    = 14.50672383
ECCENTRICITY   = .00707188
INCLINATION    = 97.0696
RA_OF_ASC_NODE = 285.8725
ARG_OF_PERICENTER = 86.0835
MEAN_ANOMALY   = 274.8445

EPHEMERIS_TYPE = 0
CLASSIFICATION_TYPE = U
NORAD_CAT_ID   = 20323
ELEMENT_SET_NO = 999
REV_AT_EPOCH   = 89741
BSTAR          = .84922426E-4
MEAN_MOTION_DOT = .31E-5
MEAN_MOTION_DDOT = 0

CCSDS_OMM_VERS = 2.0
CREATION_DATE  = 
ORIGINATOR     = 

OBJECT_NAME    = ARIANE 40 R/B
OBJECT_ID      = 1990-005H
CENTER_NAME    = EARTH
REF_FRAME      = TEME
TIME_SYSTEM    = UTC
MEAN_ELEMENT_THEORY = SGP/SGP4

EPOCH          = 2026-03-21T03:22:23.826720
MEAN_MOTION    = 14.39877284
ECCENTRICITY   = .00105709
INCLINATION    = 98.3058
RA_OF_ASC_NODE = 140.4595
ARG_OF_PERICENTER = 164.1162
MEAN_ANOMALY   = 196.0360

EPHEMERIS_TYPE = 0
CLASSIFICATION_TYPE = U
NORAD_CAT_ID   = 20443
ELEMENT_SET_NO = 999
REV_AT_EPOCH   = 89445
BSTAR          = .76508593E-4
MEAN_MOTION_DOT = .198E-5
MEAN_MOTION_DDOT = 0

CCSDS_OMM_VERS = 2.0
CREATION_DATE  = 
ORIGINATOR     = 

OBJECT_NAME    = DELTA 2 R/B(1)
OBJECT_ID      = 1990-008B
CENTER_NAME    = EARTH
REF_FRAME      = TEME
TIME_SYSTEM    = UTC
MEAN_ELEMENT_THEORY = SGP/SGP4

EPOCH          = 2026-03-20T03:34:54.803424
MEAN_MOTION    = 15.57257585
ECCENTRICITY   = .00815089
INCLINATION    = 35.6026
RA_OF_ASC_NODE = 106.1373
ARG_OF_PERICENTER = 355.6437
MEAN_ANOMALY   = 4.3584

EPHEMERIS_TYPE = 0
CLASSIFICATION_TYPE = U
NORAD_CAT_ID   = 20453
ELEMENT_SET_NO = 999
REV_AT_EPOCH   = 92776
BSTAR          = .6206102E-3
MEAN_MOTION_DOT = .54938E-3
MEAN_MOTION_DDOT = 0

