SL-3 R/B                
1 19046U 88032B   26080.18743029  .00005010  00000+0  23374-3 0  9998
2 19046  97.5209  63.3995 0025481 189.7730 170.3013 15.20029794 53859
SL-16 R/B               
1 19120U 88039B   26080.18386052 -.00000131  00000+0 -39233-4 0  9990
2 19120  71.0153  44.2413 0023325 317.7273  42.2053 14.19617742960019
COSMOS 1953             
1 19210U 88050A   26080.21213465  .00007274  00000+0  25898-3 0  9998
2 19210  82.5085 146.6581 0012653  86.5727 273.6959 15.28699907 39544
SL-8 R/B                
1 19257U 88053B   26080.19991088  .00000281  00000+0  99525-4 0  9993
2 19257  74.0450  91.2476 0021542 269.0354 164.1065 14.38923254978253
COSMOS 1975             
1 19573U 88093A   26080.11847465  .00005874  00000+0  21200-3 0  9996
2 19573  82.5160 106.2087 0013079 126.0748 234.1705 15.28211514 21152
SL-14 R/B               
1 19574U 88093B   26079.97879171  .00000486  00000+0  53061-4 0  9993
2 19574  82.5328  31.4470 0020821   5.3347  63.6004 14.85669422  2693
SL-16 R/B               
1 19650U 88102B   26080.20649108 -.00000164  00000+0 -58543-4 0  9997
2 19650  70.9987 127.2656 0014765 343.7614  16.3034 14.16155751928522
INTERCOSMOS 24          
1 20261U 89080A   26080.08170274  .00000476  00000+0  14148-3 0  9998
2 20261  82.6016  96.9838 1186705 266.3512  80.1436 12.59573047668232
SL-14 R/B               
1 20262U 89080C   26080.15863540  .00000390  00000+0  11011-3 0  9993
2 20262  82.5967 165.8267 1230826 158.5457 207.2223 12.50505429661580
DELTA 1 R/B             
1 20323U 89089B   26080.27771985  .00000310  00000+0  84922-4 0  9998
2 20323  97.0696 285.8725 0070718  86.0835 274.8445 14.50672383897411
ARIANE 40 R/B           
1 20443U 90005H   26080.14055355  .00000198  00000+0  76509-4 0  9999
2 20443  98.3058 140.4595 0010570 164.1162 196.0360 14.39877284894458
DELTA 2 R/B(1)          
1 20453U 90008B   26079.14924541  .00054938  00000+0  62061-3 0  9991
2 20453  35.6026 106.1373 0081508 355.6437   4.3584 15.57257585927769
